start=new Date('2023-05-23T00:00:00.000Z').valueOf();
sats=[{"PERIOD":"95.590","RA_OF_ASC_NODE":"279.6714","OBJECT_ID":"2021-009AR","EPHEMERIS_TYPE":"0","SEMIMAJOR_AXIS":"6925.235","REF_FRAME":"TEME","MEAN_ELEMENT_THEORY":"SGP4","COUNTRY_CODE":"US","MEAN_MOTION_DOT":"0.00029693","CLASSIFICATION_TYPE":"U","OBJECT_TYPE":"PAYLOAD","ARG_OF_PERICENTER":"89.0938","SITE":"AFETR","GP_ID":"232356250","RCS_SIZE":"LARGE","MEAN_ANOMALY":"271.0166","MEAN_MOTION_DDOT":"0.0000000000000","OBJECT_NAME":"STARLINK-1991","ECCENTRICITY":"0.00010050","CENTER_NAME":"EARTH","PERIAPSIS":"546.404","MEAN_MOTION":"15.06437086","TLE_LINE2":"2 47587  53.0541 279.6714 0001005  89.0938 271.0166 15.06437086126899","TLE_LINE1":"1 47587U 21009AR  23142.66357197  .00029693  00000-0  20019-2 0  9992","NORAD_CAT_ID":"47587","INCLINATION":"53.0541","LAUNCH_DATE":"2021-02-04","ELEMENT_SET_NO":"999","APOAPSIS":"547.796","DECAY_DATE":null,"REV_AT_EPOCH":"12689","FILE":"3914964","EPOCH":"2023-05-22T15:55:32.618208","TIME_SYSTEM":"UTC","BSTAR":"0.00200190000000"},{"BSTAR":"0.00178400000000","TIME_SYSTEM":"UTC","REV_AT_EPOCH":"12675","FILE":"3914964","EPOCH":"2023-05-22T15:43:38.756352","LAUNCH_DATE":"2021-02-04","ELEMENT_SET_NO":"999","DECAY_DATE":null,"APOAPSIS":"547.948","TLE_LINE2":"2 47588  53.0530 289.7136 0000975 113.6796 246.4295 15.06380581126750","TLE_LINE1":"1 47588U 21009AS  23142.65530968  .00026377  00000-0  17840-2 0  9995","INCLINATION":"53.0530","NORAD_CAT_ID":"47588","ECCENTRICITY":"0.00009750","CENTER_NAME":"EARTH","MEAN_MOTION":"15.06380581","PERIAPSIS":"546.598","ARG_OF_PERICENTER":"113.6796","SITE":"AFETR","GP_ID":"232356266","MEAN_MOTION_DDOT":"0.0000000000000","OBJECT_NAME":"STARLINK-1993","RCS_SIZE":"LARGE","MEAN_ANOMALY":"246.4295","REF_FRAME":"TEME","MEAN_ELEMENT_THEORY":"SGP4","OBJECT_TYPE":"PAYLOAD","CLASSIFICATION_TYPE":"U","MEAN_MOTION_DOT":"0.00026377","COUNTRY_CODE":"US","PERIOD":"95.593","RA_OF_ASC_NODE":"289.7136","OBJECT_ID":"2021-009AS","EPHEMERIS_TYPE":"0","SEMIMAJOR_AXIS":"6925.408"},{"TLE_LINE2":"2 47589  53.0537 289.6246 0000992  99.0693 261.0408 15.06392524126750","TLE_LINE1":"1 47589U 21009AT  23142.67373676  .00028556  00000-0  19286-2 0  9996","INCLINATION":"53.0537","NORAD_CAT_ID":"47589","DECAY_DATE":null,"APOAPSIS":"547.923","LAUNCH_DATE":"2021-02-04","ELEMENT_SET_NO":"999","EPOCH":"2023-05-22T16:10:10.856064","REV_AT_EPOCH":"12675","FILE":"3914964","BSTAR":"0.00192860000000","TIME_SYSTEM":"UTC","EPHEMERIS_TYPE":"0","SEMIMAJOR_AXIS":"6925.371","PERIOD":"95.593","OBJECT_ID":"2021-009AT","RA_OF_ASC_NODE":"289.6246","MEAN_ELEMENT_THEORY":"SGP4","OBJECT_TYPE":"PAYLOAD","CLASSIFICATION_TYPE":"U","MEAN_MOTION_DOT":"0.00028556","COUNTRY_CODE":"US","REF_FRAME":"TEME","GP_ID":"232356516","OBJECT_NAME":"STARLINK-1994","MEAN_MOTION_DDOT":"0.0000000000000","MEAN_ANOMALY":"261.0408","RCS_SIZE":"LARGE","ARG_OF_PERICENTER":"99.0693","SITE":"AFETR","CENTER_NAME":"EARTH","MEAN_MOTION":"15.06392524","PERIAPSIS":"546.549","ECCENTRICITY":"0.00009920"},{"PERIAPSIS":"546.300","MEAN_MOTION":"15.06409429","CENTER_NAME":"EARTH","ECCENTRICITY":"0.00012780","MEAN_ANOMALY":"311.5109","RCS_SIZE":"LARGE","MEAN_MOTION_DDOT":"0.0000000000000","OBJECT_NAME":"STARLINK-1995","GP_ID":"232357766","SITE":"AFETR","ARG_OF_PERICENTER":"48.5989","MEAN_MOTION_DOT":"0.00025461","COUNTRY_CODE":"US","CLASSIFICATION_TYPE":"U","OBJECT_TYPE":"PAYLOAD","MEAN_ELEMENT_THEORY":"SGP4","REF_FRAME":"TEME","SEMIMAJOR_AXIS":"6925.320","EPHEMERIS_TYPE":"0","RA_OF_ASC_NODE":"308.7714","OBJECT_ID":"2021-009AU","PERIOD":"95.592","TIME_SYSTEM":"UTC","BSTAR":"0.00172160000000","EPOCH":"2023-05-22T20:43:30.722592","FILE":"3914964","REV_AT_EPOCH":"12650","APOAPSIS":"548.070","DECAY_DATE":null,"ELEMENT_SET_NO":"999","LAUNCH_DATE":"2021-02-04","NORAD_CAT_ID":"47590","INCLINATION":"53.0539","TLE_LINE2":"2 47590  53.0539 308.7714 0001278  48.5989 311.5109 15.06409429126507","TLE_LINE1":"1 47590U 21009AU  23142.86355003  .00025461  00000-0  17216-2 0  9996"},{"GP_ID":"232356750","MEAN_MOTION_DDOT":"0.0000000000000","OBJECT_NAME":"STARLINK-1996","RCS_SIZE":"LARGE","MEAN_ANOMALY":"251.3969","ARG_OF_PERICENTER":"108.7101","SITE":"AFETR","CENTER_NAME":"EARTH","MEAN_MOTION":"15.06427106","PERIAPSIS":"546.612","ECCENTRICITY":"0.00007490","EPHEMERIS_TYPE":"0","SEMIMAJOR_AXIS":"6925.265","PERIOD":"95.590","RA_OF_ASC_NODE":"289.6428","OBJECT_ID":"2021-009AV","MEAN_ELEMENT_THEORY":"SGP4","CLASSIFICATION_TYPE":"U","OBJECT_TYPE":"PAYLOAD","COUNTRY_CODE":"US","MEAN_MOTION_DOT":"0.00034294","REF_FRAME":"TEME","EPOCH":"2023-05-22T16:04:50.353536","REV_AT_EPOCH":"12675","FILE":"3914964","BSTAR":"0.00230830000000","TIME_SYSTEM":"UTC","TLE_LINE2":"2 47591  53.0536 289.6428 0000749 108.7101 251.3969 15.06427106126755","TLE_LINE1":"1 47591U 21009AV  23142.67002724  .00034294  00000-0  23083-2 0  9998","INCLINATION":"53.0536","NORAD_CAT_ID":"47591","DECAY_DATE":null,"APOAPSIS":"547.649","LAUNCH_DATE":"2021-02-04","ELEMENT_SET_NO":"999"},{"PERIOD":"95.592","RA_OF_ASC_NODE":"309.2052","OBJECT_ID":"2021-009AW","EPHEMERIS_TYPE":"0","SEMIMAJOR_AXIS":"6925.360","REF_FRAME":"TEME","MEAN_ELEMENT_THEORY":"SGP4","MEAN_MOTION_DOT":"0.00025260","COUNTRY_CODE":"US","OBJECT_TYPE":"PAYLOAD","CLASSIFICATION_TYPE":"U","ARG_OF_PERICENTER":"110.9110","SITE":"AFETR","GP_ID":"232356766","RCS_SIZE":"LARGE","MEAN_ANOMALY":"249.1956","MEAN_MOTION_DDOT":"0.0000000000000","OBJECT_NAME":"STARLINK-1997","ECCENTRICITY":"0.00007200","CENTER_NAME":"EARTH","PERIAPSIS":"546.726","MEAN_MOTION":"15.06396272","TLE_LINE1":"1 47592U 21009AW  23142.76771854  .00025260  00000-0  17088-2 0  9997","TLE_LINE2":"2 47592  53.0544 309.2052 0000720 110.9110 249.1956 15.06396272126481","NORAD_CAT_ID":"47592","INCLINATION":"53.0544","LAUNCH_DATE":"2021-02-04","ELEMENT_SET_NO":"999","APOAPSIS":"547.724","DECAY_DATE":null,"REV_AT_EPOCH":"12648","FILE":"3914964","EPOCH":"2023-05-22T18:25:30.881856","TIME_SYSTEM":"UTC","BSTAR":"0.00170880000000"},{"PERIOD":"95.592","OBJECT_ID":"2021-009AX","RA_OF_ASC_NODE":"309.3387","EPHEMERIS_TYPE":"0","SEMIMAJOR_AXIS":"6925.345","REF_FRAME":"TEME","MEAN_ELEMENT_THEORY":"SGP4","COUNTRY_CODE":"US","MEAN_MOTION_DOT":"0.00026625","CLASSIFICATION_TYPE":"U","OBJECT_TYPE":"PAYLOAD","ARG_OF_PERICENTER":"106.5586","SITE":"AFETR","GP_ID":"232357016","RCS_SIZE":"LARGE","MEAN_ANOMALY":"253.5527","MEAN_MOTION_DDOT":"0.0000000000000","OBJECT_NAME":"STARLINK-1998","ECCENTRICITY":"0.00011230","CENTER_NAME":"EARTH","PERIAPSIS":"546.432","MEAN_MOTION":"15.06401314","TLE_LINE2":"2 47593  53.0530 309.3387 0001123 106.5586 253.5527 15.06401314126482","TLE_LINE1":"1 47593U 21009AX  23142.73822948  .00026625  00000-0  17995-2 0  9999","NORAD_CAT_ID":"47593","INCLINATION":"53.0530","LAUNCH_DATE":"2021-02-04","ELEMENT_SET_NO":"999","APOAPSIS":"547.987","DECAY_DATE":null,"REV_AT_EPOCH":"12648","FILE":"3914964","EPOCH":"2023-05-22T17:43:03.027072","TIME_SYSTEM":"UTC","BSTAR":"0.00179950000000"},{"EPHEMERIS_TYPE":"0","SEMIMAJOR_AXIS":"6925.357","PERIOD":"95.592","OBJECT_ID":"2021-009AY","RA_OF_ASC_NODE":"309.4869","MEAN_ELEMENT_THEORY":"SGP4","MEAN_MOTION_DOT":"0.00026628","COUNTRY_CODE":"US","OBJECT_TYPE":"PAYLOAD","CLASSIFICATION_TYPE":"U","REF_FRAME":"TEME","GP_ID":"232357267","RCS_SIZE":"LARGE","MEAN_ANOMALY":"239.7787","MEAN_MOTION_DDOT":"0.0000000000000","OBJECT_NAME":"STARLINK-1999","ARG_OF_PERICENTER":"120.3285","SITE":"AFETR","CENTER_NAME":"EARTH","PERIAPSIS":"546.646","MEAN_MOTION":"15.06397166","ECCENTRICITY":"0.00008320","TLE_LINE1":"1 47594U 21009AY  23142.70505532  .00026628  00000-0  17999-2 0  9991","TLE_LINE2":"2 47594  53.0543 309.4869 0000832 120.3285 239.7787 15.06397166126471","NORAD_CAT_ID":"47594","INCLINATION":"53.0543","APOAPSIS":"547.798","DECAY_DATE":null,"LAUNCH_DATE":"2021-02-04","ELEMENT_SET_NO":"999","EPOCH":"2023-05-22T16:55:16.779648","REV_AT_EPOCH":"12647","FILE":"3914964","TIME_SYSTEM":"UTC","BSTAR":"0.00179990000000"},{"EPOCH":"2023-05-22T18:09:34.707744","FILE":"3914964","REV_AT_EPOCH":"12648","BSTAR":"0.00161870000000","TIME_SYSTEM":"UTC","INCLINATION":"53.0546","NORAD_CAT_ID":"47595","TLE_LINE1":"1 47595U 21009AZ  23142.75665171  .00023911  00000-0  16187-2 0  9993","TLE_LINE2":"2 47595  53.0546 309.2552 0000955 109.8134 250.2958 15.06399159126486","DECAY_DATE":null,"APOAPSIS":"547.878","ELEMENT_SET_NO":"999","LAUNCH_DATE":"2021-02-04","MEAN_MOTION_DDOT":"0.0000000000000","OBJECT_NAME":"STARLINK-2000","MEAN_ANOMALY":"250.2958","RCS_SIZE":"LARGE","GP_ID":"232356251","SITE":"AFETR","ARG_OF_PERICENTER":"109.8134","MEAN_MOTION":"15.06399159","PERIAPSIS":"546.555","CENTER_NAME":"EARTH","ECCENTRICITY":"0.00009550","SEMIMAJOR_AXIS":"6925.351","EPHEMERIS_TYPE":"0","OBJECT_ID":"2021-009AZ","RA_OF_ASC_NODE":"309.2552","PERIOD":"95.592","OBJECT_TYPE":"PAYLOAD","CLASSIFICATION_TYPE":"U","MEAN_MOTION_DOT":"0.00023911","COUNTRY_CODE":"US","MEAN_ELEMENT_THEORY":"SGP4","REF_FRAME":"TEME"},{"TIME_SYSTEM":"UTC","BSTAR":"0.00159540000000","REV_AT_EPOCH":"12650","FILE":"3914964","EPOCH":"2023-05-22T21:25:58.682784","LAUNCH_DATE":"2021-02-04","ELEMENT_SET_NO":"999","APOAPSIS":"547.891","DECAY_DATE":null,"TLE_LINE2":"2 47596  53.0542 308.6404 0000962 110.2007 249.9086 15.06396263126508","TLE_LINE1":"1 47596U 21009BA  23142.89304031  .00023559  00000-0  15954-2 0  9993","NORAD_CAT_ID":"47596","INCLINATION":"53.0542","ECCENTRICITY":"0.00009620","CENTER_NAME":"EARTH","PERIAPSIS":"546.559","MEAN_MOTION":"15.06396263","ARG_OF_PERICENTER":"110.2007","SITE":"AFETR","GP_ID":"232356267","MEAN_ANOMALY":"249.9086","RCS_SIZE":"LARGE","MEAN_MOTION_DDOT":"0.0000000000000","OBJECT_NAME":"STARLINK-2001","REF_FRAME":"TEME","MEAN_ELEMENT_THEORY":"SGP4","MEAN_MOTION_DOT":"0.00023559","COUNTRY_CODE":"US","OBJECT_TYPE":"PAYLOAD","CLASSIFICATION_TYPE":"U","PERIOD":"95.592","RA_OF_ASC_NODE":"308.6404","OBJECT_ID":"2021-009BA","EPHEMERIS_TYPE":"0","SEMIMAJOR_AXIS":"6925.360"}];
